OBJECT_NAME,OBJECT_ID,EPOCH,MEAN_MOTION,ECCENTRICITY,INCLINATION,RA_OF_ASC_NODE,ARG_OF_PERICENTER,MEAN_ANOMALY,EPHEMERIS_TYPE,CLASSIFICATION_TYPE,NORAD_CAT_ID,ELEMENT_SET_NO,REV_AT_EPOCH,BSTAR,MEAN_MOTION_DOT,MEAN_MOTION_DDOT
WT 1B,2019-032G,2026-05-14T04:16:06.861216,15.26508045,.0008022,44.9711,246.4739,49.4840,310.6740,0,U,44316,999,38188,.277E-3,.7085E-4,0
PROX-1,2019-036A,2026-05-13T21:45:43.968096,14.89775846,.0006559,23.9965,343.0870,357.6910,2.3558,0,U,44339,999,36835,.88071E-3,.894E-4,0
NPSAT1,2019-036B,2026-05-14T01:47:18.597120,14.74250553,.0007965,23.9983,79.8680,183.6770,176.3668,0,U,44340,999,36745,.4875E-3,.3543E-4,0
FORMOSAT 7-3,2019-036E,2026-05-14T03:28:52.147200,15.09532348,.0000534,23.9993,52.7859,216.1094,143.9374,0,U,44343,999,37809,.16433E-3,.305E-4,0
FORMOSAT 7-1,2019-036L,2026-05-13T15:20:54.557376,14.96359077,.00009954,23.9973,265.2775,115.5361,244.5242,0,U,44349,999,37947,.126909E-3,.1774E-4,0
FORMOSAT 7-4,2019-036M,2026-05-13T20:41:11.321376,14.96353676,.00011964,23.9991,325.8818,137.9561,222.1032,0,U,44350,999,37892,.13406133E-3,.1857E-4,0
FORMOSAT 7-2,2019-036N,2026-05-14T02:01:27.310368,14.96351005,.0000732,23.9988,18.6961,138.6661,221.3895,0,U,44351,999,37847,.1292E-3,.18E-4,0
FORMOSAT 7-6,2019-036Q,2026-05-13T11:37:07.711392,14.96360951,.00014139,23.9963,203.5611,64.5600,295.5047,0,U,44353,999,37661,.11507471E-3,.1637E-4,0
FORMOSAT 7-5,2019-036V,2026-05-13T09:28:28.998912,14.96359187,.00006783,23.9970,142.9111,119.6125,240.4444,0,U,44358,999,37713,.11030542E-3,.1581E-4,0
METEOR-M2 2,2019-038A,2026-05-14T05:53:23.468928,14.24356166,.0002315,98.9135,121.0327,99.4632,260.6808,0,U,44387,999,35646,.61218E-4,.96E-6,0
COSMOS 2535,2019-039A,2026-05-14T04:55:06.324384,14.91870498,.0007427,97.5785,163.6673,336.8185,23.2698,0,U,44421,999,37157,.57487E-4,.527E-5,0
GLOBAL-4,2019-054E,2026-05-14T03:12:59.180256,15.61100629,.0003665,45.0066,72.3843,116.8150,243.3121,0,U,44499,999,37503,.41672E-3,.35775E-3,0
ZY-1 02D,2019-059A,2026-05-14T04:37:43.121280,14.35448470,.0000964,98.3209,196.8779,159.7412,200.3812,0,U,44528,999,34946,-.10164E-4,-.71E-6,0
TAURUS-1 (JINNIUZUO 1),2019-059C,2026-05-14T04:26:14.703360,14.71709611,.0009346,98.6384,296.9195,64.8674,295.3499,0,U,44530,999,35364,.35338E-3,.2149E-4,0
ZHUHAI-1 03B,2019-060C,2026-05-14T05:29:05.004960,15.52156091,.0009789,97.5486,290.2226,85.8915,274.3456,0,U,44536,999,37105,.34772E-3,.21E-3,0
ZHUHAI-1 03C,2019-060D,2026-05-14T03:54:39.927168,15.95388845,.0004958,97.5458,302.7860,310.5990,49.4853,0,U,44537,999,37182,.79233E-3,.311174E-2,.40233E-4
ZHUHAI-1 03D,2019-060E,2026-05-14T04:09:49.973184,15.47779742,.0008224,97.5347,282.5857,73.0652,287.1499,0,U,44538,999,37081,.38233E-3,.1978E-3,0
ZHUHAI-1 03E,2019-060F,2026-05-14T04:56:25.442592,15.39917799,.0007042,97.5564,283.0156,138.4140,221.7642,0,U,44539,999,37053,.3076E-3,.12167E-3,0
ATLAS 5 CENTAUR DEB,2018-079BG,2026-05-13T07:49:27.896448,1.77432481,.47303249,13.5875,42.1319,293.6492,24.4428,0,U,44694,999,4594,0,-.47E-6,0
GAOFEN-7,2019-072A,2026-05-14T04:42:40.771008,15.21326314,.0017464,97.2450,196.9367,150.2777,209.9455,0,U,44703,999,36247,.12515E-3,.2745E-4,0
JILIN-1 GAOFEN 2A,2019-075A,2026-05-14T04:34:53.884416,15.38356942,.0006381,97.4967,217.2128,191.3028,168.8074,0,U,44777,999,35965,.26132E-3,.9804E-4,0
NINGXIA-1 1,2019-076A,2026-05-14T04:35:47.094720,14.02035431,.0011175,45.0070,331.7720,354.0207,6.0492,0,U,44779,999,33308,.49703E-4,-.54E-6,0
NINGXIA-1 5,2019-076E,2026-05-14T01:31:22.968192,14.02083792,.0011224,45.0073,331.6995,343.5076,16.5392,0,U,44783,999,33298,.66489E-4,-.28E-6,0
KL-ALPHA A,2019-077A,2026-05-14T04:15:49.016160,13.56039113,.0010369,88.9259,226.2803,197.5647,162.5150,0,U,44785,999,32112,.33379E-4,.36E-6,0
CARTOSAT-3,2019-081A,2026-05-14T04:07:10.732800,15.19202100,.001112,97.4330,196.5805,270.1162,89.8799,0,U,44804,999,35830,.10142E-3,.2069E-4,0
JILIN-1 GAOFEN 2B,2019-086A,2026-05-14T04:32:45.784320,15.20306792,.0015684,97.4894,206.4022,80.9576,279.3433,0,U,44836,999,35532,.18916E-3,.4053E-4,0
TIANQIN 1 (CAS-6),2019-093A,2026-05-14T05:31:03.993312,14.95255972,.001168,97.7794,218.3208,161.2326,198.9328,0,U,44879,999,34697,.90706E-4,.941E-5,0
ETRSS-1,2019-093B,2026-05-14T04:18:11.138112,14.95661248,.0012001,97.7810,218.6996,160.5293,199.6389,0,U,44880,999,34697,.14418E-3,.1547E-4,0
TIANYAN 01,2019-093C,2026-05-14T04:27:29.785824,14.86460125,.0013093,97.7541,207.2460,192.6028,167.4862,0,U,44881,999,34636,.86353E-5,.23E-6,0
TIANYAN 02,2019-093D,2026-05-14T03:28:16.949568,15.04776027,.0014854,97.7914,228.6235,136.7782,223.4612,0,U,44882,999,34749,.36238E-3,.506E-4,0
CBERS 4A,2019-093E,2026-05-14T04:29:12.497280,14.81646192,.0000861,97.7512,202.5143,344.0660,16.0526,0,U,44883,999,34604,-.22817E-4,-.23E-5,0
WEILAI 1R,2019-093F,2026-05-14T05:51:56.229120,15.00332065,.0015483,97.7832,224.0946,141.2997,218.9339,0,U,44884,999,34733,.1682E-3,.2053E-4,0
FLORIPASAT-1,2019-093G,2026-05-14T03:42:12.073824,15.03480418,.0012048,97.7883,228.1489,180.0035,180.1192,0,U,44885,999,34753,.24564E-3,.3289E-4,0
SHUNTIAN,2019-093H,2026-05-14T03:23:56.281632,14.94983142,.0011927,97.8003,222.4821,170.2647,189.8807,0,U,44886,999,34709,.15308E-3,.1617E-4,0
2019-093L,2019-093L,2026-05-14T02:33:12.623040,14.94339920,.0012637,97.7556,212.7736,157.3460,202.8320,0,U,44889,999,34671,.19919E-3,.2087E-4,0
ELEKTRO-L 3,2019-095A,2026-05-14T02:52:53.711040,1.00271493,.0001165,0.1677,79.2359,331.3706,300.4461,0,U,44903,999,2336,0,-.82E-6,0
GONETS-M 14,2019-096A,2026-05-14T05:44:00.045888,12.42868848,.0012229,82.5197,105.6866,224.3744,135.6357,0,U,44905,999,28946,-.74302E-4,0,0
GONETS-M 15,2019-096B,2026-05-14T04:30:28.668384,12.42869972,.0013927,82.5217,106.1744,249.7004,110.2579,0,U,44906,999,28942,-.22555E-3,-.21E-6,0
GONETS-M 16,2019-096C,2026-05-14T05:09:04.857120,12.42890605,.0009876,82.5163,105.1261,297.0207,62.9864,0,U,44907,999,28941,-.38918E-3,-.44E-6,0
RS-44 & BREEZE-KM R/B,2019-096E,2026-05-14T03:39:39.760128,12.79748134,.0216682,82.5239,2.3248,223.7720,134.6028,0,U,44909,999,29799,.69631E-4,.27E-6,0
JILIN-1 KUANFU 01,2020-003A,2026-05-14T04:07:44.565312,15.10523203,.0011151,97.5036,208.7947,64.5247,295.7135,0,U,45016,999,35019,.11726E-3,.1871E-4,0
XINGYUN-2 01,2020-028A,2026-05-14T04:27:39.344256,15.11658857,.0008328,97.4863,127.2665,331.6616,28.4160,0,U,45602,999,32970,.12163E-3,.2006E-4,0
XINGYUN-2 02,2020-028B,2026-05-14T03:48:17.907840,15.11393709,.0012037,97.5080,140.7519,36.1590,324.0451,0,U,45603,999,32969,.11401E-3,.1863E-4,0
HAIYANG-1D,2020-036A,2026-05-14T03:15:58.855968,14.34161835,.0001485,98.4536,76.5588,244.0385,116.0647,0,U,45721,999,31009,.99744E-4,.236E-5,0
M2 PATHFINDER,2020-037E,2026-05-14T01:30:37.868256,15.04522923,.0010038,97.8165,324.9132,267.9569,92.0507,0,U,45727,999,32036,.11415E-3,.1536E-4,0
GAOFEN DUOMO (GFDM),2020-042A,2026-05-14T04:41:33.240768,14.76829814,.0010974,97.7769,195.3147,175.3417,184.7898,0,U,45856,999,31599,.46558E-4,.278E-5,0
ZIYUAN 3-03 (ZY 3-03),2020-051A,2026-05-14T04:20:14.258112,15.21482418,.0007095,97.2856,203.0009,74.7272,285.4748,0,U,45939,999,32217,.13211E-3,.2905E-4,0
NEMO-HD,2020-061F,2026-05-14T04:11:19.910400,15.43883968,.0002409,97.1945,196.4851,121.5606,238.5878,0,U,46277,999,31673,.15959E-3,.7159E-4,0
3CAT-5A,2020-061W,2026-05-14T02:53:07.826208,15.45011358,.0001184,97.2432,197.0770,175.2876,184.8384,0,U,46292,999,31576,.23693E-3,.11089E-3,0
3CAT-5B,2020-061X,2026-05-14T04:44:39.647040,15.46296335,.0001339,97.2428,198.0717,183.7603,176.3637,0,U,46293,999,31580,.24572E-3,.12023E-3,0
NAPA-1,2020-061BA,2026-05-14T05:25:32.244960,15.63754222,.0001817,97.2492,207.4022,140.7298,219.4093,0,U,46320,999,31642,.45496E-3,.42506E-3,0
JILIN-1 GAOFEN 3E,2020-065D,2026-05-14T04:41:27.163392,15.59821704,.0009723,97.2295,186.1140,280.7659,79.2503,0,U,46457,999,31445,.48397E-3,.38923E-3,0
JILIN-1 GAOFEN 3F,2020-065E,2026-05-14T04:00:51.448896,15.57616538,.0011261,97.2248,183.5686,268.9632,91.0334,0,U,46458,999,31440,.46494E-3,.34414E-3,0
JILIN-1 GAOFEN 3G,2020-065F,2026-05-14T04:48:47.048256,15.65611545,.0012416,97.2325,189.9049,168.0442,192.1116,0,U,46459,999,31461,.5466E-3,.55275E-3,0
JILIN-1 GAOFEN 3H,2020-065G,2026-05-14T04:09:35.274816,15.63135132,.0009131,97.2268,186.3821,115.6953,244.5249,0,U,46460,999,31456,.50888E-3,.46532E-3,0
HAIYANG-2C,2020-066A,2026-05-14T04:29:36.106080,13.83371575,.0010154,65.9974,299.9369,240.3205,119.6853,0,U,46469,999,28479,-.94931E-4,-.186E-5,0
HJ-2A,2020-067A,2026-05-14T03:31:17.846976,14.76565333,.0004106,97.8827,213.3207,37.1159,323.0334,0,U,46478,999,30323,-.39439E-5,-.77E-6,0
HJ-2B,2020-067B,2026-05-14T04:23:22.011360,14.76511721,.0001327,97.8890,214.3526,76.3350,283.8008,0,U,46479,999,30324,.61293E-4,.377E-5,0
GONETS-M 17,2020-068A,2026-05-14T03:48:39.354048,12.42871523,.0023285,82.5021,8.6737,108.1505,252.2113,0,U,46486,999,25493,-.32705E-3,-.35E-6,0
GONETS-M 18,2020-068B,2026-05-14T02:56:19.050144,12.42870673,.0020625,82.4975,7.8273,104.4938,255.8431,0,U,46487,999,25491,-.54082E-3,-.65E-6,0
GONETS-M 19,2020-068C,2026-05-14T04:17:34.095840,12.42890466,.0014187,82.4999,8.2363,117.9415,242.3102,0,U,46488,999,25502,-.11381E-2,-.148E-5,0
DEKART,2020-068H,2026-05-14T03:44:39.458400,15.36533021,.0010511,97.8750,141.0113,54.8739,305.3487,0,U,46493,999,31054,.2426E-3,.8575E-4,0
NORBI,2020-068J,2026-05-14T05:07:09.931296,15.46963777,.0007446,97.8644,147.2238,38.8192,321.3590,0,U,46494,999,31095,.30861E-3,.15485E-3,0
SALSAT,2020-068K,2026-05-13T23:53:39.193728,15.29276426,.0011457,97.8855,134.9940,67.8052,292.4401,0,U,46495,999,31013,.19079E-3,.5344E-4,0
ICEYE-X6,2020-068M,2026-05-14T03:17:35.959200,15.04328736,.0006689,98.0963,126.1890,193.6917,166.4127,0,U,46497,999,30811,.12801E-3,.1717E-4,0
NETSAT-4,2020-068U,2026-05-13T22:53:50.446176,15.42692308,.0007643,97.8613,139.4767,87.9049,272.3072,0,U,46504,999,31049,.28588E-3,.12391E-3,0
